{"type": "FeatureCollection", "features": [ {"type": "Feature", "properties": {"norad_id": 66601, "name": "STARLINK-35978", "group": "last-30-days", "lat": -37.267086186762896, "lon": 119.27976721213508, "alt_km": 447.81657964658643, "timestamp": "2025-12-15T22:44:27.660341+00:00", "meta": {"OBJECT_NAME": "STARLINK-35978", "OBJECT_ID": "2025-270P", "EPOCH": "2025-12-15T08:00:01.999872", "MEAN_MOTION": 15.43227422, "ECCENTRICITY": 9.289e-05, "INCLINATION": 42.9999, "RA_OF_ASC_NODE": 177.5642, "ARG_OF_PERICENTER": 257.4899, "MEAN_ANOMALY": 227.0944, "EPHEMERIS_TYPE": 0, "CLASSIFICATION_TYPE": "U", "NORAD_CAT_ID": 66601, "ELEMENT_SET_NO": 999, "REV_AT_EPOCH": 465, "BSTAR": -0.057725303, "MEAN_MOTION_DOT": -0.02340123, "MEAN_MOTION_DDOT": 0}, "tle": {"line1": "1 66601U 25270P   25349.33335648 -.02340123  00000+0 -57725-1 0  9996", "line2": "2 66601  42.9999 177.5642 0000928 257.4899 227.0944 15.43227422  4653"}}, "geometry": {"type": "Point", "coordinates": [119.27976721213508, -37.267086186762896]}}, {"type": "Feature", "properties": {"norad_id": 66602, "name": "STARLINK-36050", "group": "last-30-days", "lat": -27.63146246562904, "lon": 28.376555056127415, "alt_km": 445.43065066655436, "timestamp": "2025-12-15T22:44:27.660351+00:00", "meta": {"OBJECT_NAME": "STARLINK-36050", "OBJECT_ID": "2025-270Q", "EPOCH": "2025-12-15T08:00:01.999872", "MEAN_MOTION": 15.40691298, "ECCENTRICITY": 0.00019385, "INCLINATION": 42.9997, "RA_OF_ASC_NODE": 177.7381, "ARG_OF_PERICENTER": 251.7819, "MEAN_ANOMALY": 160.3774, "EPHEMERIS_TYPE": 0, "CLASSIFICATION_TYPE": "U", "NORAD_CAT_ID": 66602, "ELEMENT_SET_NO": 999, "REV_AT_EPOCH": 471, "BSTAR": 0.00053491857, "MEAN_MOTION_DOT": 0.000221, "MEAN_MOTION_DDOT": 0}, "tle": {"line1": "1 66602U 25270Q   25349.33335648  .00022100  00000+0  53492-3 0  9994", "line2": "2 66602  42.9997 177.7381 0001938 251.7819 160.3774 15.40691298  4715"}}, "geometry": {"type": "Point", "coordinates": [28.376555056127415, -27.63146246562904]}}, {"type": "Feature", "properties": {"norad_id": 66603, "name": "STARLINK-36048", "group": "last-30-days", "lat": -13.590896195389979, "lon": 158.87477072285583, "alt_km": 418.26739879111483, "timestamp": "2025-12-15T22:44:27.660364+00:00", "meta": {"OBJECT_NAME": "STARLINK-36048", "OBJECT_ID": "2025-270R", "EPOCH": "2025-12-14T20:31:57.468000", "MEAN_MOTION": 15.4998209, "ECCENTRICITY": 0.00036397, "INCLINATION": 42.9992, "RA_OF_ASC_NODE": 180.2932, "ARG_OF_PERICENTER": 268.8194, "MEAN_ANOMALY": 91.2249, "EPHEMERIS_TYPE": 0, "CLASSIFICATION_TYPE": "U", "NORAD_CAT_ID": 66603, "ELEMENT_SET_NO": 999, "REV_AT_EPOCH": 457, "BSTAR": -0.0034237355, "MEAN_MOTION_DOT": -0.00192289, "MEAN_MOTION_DDOT": 0}, "tle": {"line1": "1 66603U 25270R   25348.85552625 -.00192289  00000+0 -34237-2 0  9990", "line2": "2 66603  42.9992 180.2932 0003639 268.8194  91.2249 15.49982090  4572"}}, "geometry": {"type": "Point", "coordinates": [158.87477072285583, -13.590896195389979]}}, {"type": "Feature", "properties": {"norad_id": 66604, "name": "STARLINK-35977", "group": "last-30-days", "lat": -9.741758145026612, "lon": 163.2829310214792, "alt_km": 415.186213235741, "timestamp": "2025-12-15T22:44:27.660374+00:00", "meta": {"OBJECT_NAME": "STARLINK-35977", "OBJECT_ID": "2025-270S", "EPOCH": "2025-12-15T05:47:51.952128", "MEAN_MOTION": 15.50594552, "ECCENTRICITY": 0.00014478, "INCLINATION": 42.9989, "RA_OF_ASC_NODE": 178.0309, "ARG_OF_PERICENTER": 284.8784, "MEAN_ANOMALY": 75.1916, "EPHEMERIS_TYPE": 0, "CLASSIFICATION_TYPE": "U", "NORAD_CAT_ID": 66604, "ELEMENT_SET_NO": 999, "REV_AT_EPOCH": 473, "BSTAR": 0.00084362823, "MEAN_MOTION_DOT": 0.00049491, "MEAN_MOTION_DDOT": 0}, "tle": {"line1": "1 66604U 25270S   25349.24157352  .00049491  00000+0  84363-3 0  9993", "line2": "2 66604  42.9989 178.0309 0001447 284.8784  75.1916 15.50594552  4734"}}, "geometry": {"type": "Point", "coordinates": [163.2829310214792, -9.741758145026612]}}, {"type": "Feature", "properties": {"norad_id": 66605, "name": "STARLINK-36052", "group": "last-30-days", "lat": -8.417460776650033, "lon": 164.7579188435101, "alt_km": 415.2902914835031, "timestamp": "2025-12-15T22:44:27.660384+00:00", "meta": {"OBJECT_NAME": "STARLINK-36052", "OBJECT_ID": "2025-270T", "EPOCH": "2025-12-15T05:47:22.095744", "MEAN_MOTION": 15.50597887, "ECCENTRICITY": 0.00012483, "INCLINATION": 42.9988, "RA_OF_ASC_NODE": 178.0285, "ARG_OF_PERICENTER": 267.4948, "MEAN_ANOMALY": 92.577, "EPHEMERIS_TYPE": 0, "CLASSIFICATION_TYPE": "U", "NORAD_CAT_ID": 66605, "ELEMENT_SET_NO": 999, "REV_AT_EPOCH": 473, "BSTAR": 0.0011327433, "MEAN_MOTION_DOT": 0.00066724, "MEAN_MOTION_DDOT": 0}, "tle": {"line1": "1 66605U 25270T   25349.24122796  .00066724  00000+0  11327-2 0  9995", "line2": "2 66605  42.9988 178.0285 0001248 267.4948  92.5770 15.50597887  4730"}}, "geometry": {"type": "Point", "coordinates": [164.7579188435101, -8.417460776650033]}}, {"type": "Feature", "properties": {"norad_id": 66606, "name": "STARLINK-36063", "group": "last-30-days", "lat": -5.84929672551579, "lon": 167.57341267758838, "alt_km": 415.0487931889247, "timestamp": "2025-12-15T22:44:27.660394+00:00", "meta": {"OBJECT_NAME": "STARLINK-36063", "OBJECT_ID": "2025-270U", "EPOCH": "2025-12-15T05:46:22.690560", "MEAN_MOTION": 15.50593862, "ECCENTRICITY": 0.00016024, "INCLINATION": 42.9989, "RA_OF_ASC_NODE": 178.0222, "ARG_OF_PERICENTER": 269.3517, "MEAN_ANOMALY": 90.7159, "EPHEMERIS_TYPE": 0, "CLASSIFICATION_TYPE": "U", "NORAD_CAT_ID": 66606, "ELEMENT_SET_NO": 999, "REV_AT_EPOCH": 473, "BSTAR": 0.00085172846, "MEAN_MOTION_DOT": 0.00049972, "MEAN_MOTION_DDOT": 0}, "tle": {"line1": "1 66606U 25270U   25349.24054040  .00049972  00000+0  85173-3 0  9999", "line2": "2 66606  42.9989 178.0222 0001602 269.3517  90.7159 15.50593862  4730"}}, "geometry": {"type": "Point", "coordinates": [167.57341267758838, -5.84929672551579]}}, {"type": "Feature", "properties": {"norad_id": 66607, "name": "STARLINK-35993", "group": "last-30-days", "lat": -7.115245540005544, "lon": 166.1921947393942, "alt_km": 415.16898172214496, "timestamp": "2025-12-15T22:44:27.660408+00:00", "meta": {"OBJECT_NAME": "STARLINK-35993", "OBJECT_ID": "2025-270V", "EPOCH": "2025-12-15T05:46:52.452768", "MEAN_MOTION": 15.50599893, "ECCENTRICITY": 0.00014705, "INCLINATION": 42.9991, "RA_OF_ASC_NODE": 178.0256, "ARG_OF_PERICENTER": 264.0151, "MEAN_ANOMALY": 96.0542, "EPHEMERIS_TYPE": 0, "CLASSIFICATION_TYPE": "U", "NORAD_CAT_ID": 66607, "ELEMENT_SET_NO": 999, "REV_AT_EPOCH": 463, "BSTAR": 0.0012134027, "MEAN_MOTION_DOT": 0.0007155, "MEAN_MOTION_DDOT": 0}, "tle": {"line1": "1 66607U 25270V   25349.24088487  .00071550  00000+0  12134-2 0  9995", "line2": "2 66607  42.9991 178.0256 0001470 264.0151  96.0542 15.50599893  4634"}}, "geometry": {"type": "Point", "coordinates": [166.1921947393942, -7.115245540005544]}}, {"type": "Feature", "properties": {"norad_id": 66608, "name": "STARLINK-36036", "group": "last-30-days", "lat": -4.531227094143563, "lon": 169.00206681447773, "alt_km": 414.8810182070047, "timestamp": "2025-12-15T22:44:27.660418+00:00", "meta": {"OBJECT_NAME": "STARLINK-36036", "OBJECT_ID": "2025-270W", "EPOCH": "2025-12-15T05:45:53.066592", "MEAN_MOTION": 15.50598473, "ECCENTRICITY": 0.00014992, "INCLINATION": 42.9989, "RA_OF_ASC_NODE": 178.0198, "ARG_OF_PERICENTER": 270.0346, "MEAN_ANOMALY": 90.0343, "EPHEMERIS_TYPE": 0, "CLASSIFICATION_TYPE": "U", "NORAD_CAT_ID": 66608, "ELEMENT_SET_NO": 999, "REV_AT_EPOCH": 457, "BSTAR": 0.00098919184, "MEAN_MOTION_DOT": 0.00058162, "MEAN_MOTION_DDOT": 0}, "tle": {"line1": "1 66608U 25270W   25349.24019753  .00058162  00000+0  98919-3 0  9996", "line2": "2 66608  42.9989 178.0198 0001499 270.0346  90.0343 15.50598473  4570"}}, "geometry": {"type": "Point", "coordinates": [169.00206681447773, -4.531227094143563]}}, {"type": "Feature", "properties": {"norad_id": 66609, "name": "STARLINK-36034", "group": "last-30-days", "lat": -3.1831300986209023, "lon": 170.4544084619271, "alt_km": 414.5805505944845, "timestamp": "2025-12-15T22:44:27.660429+00:00", "meta": {"OBJECT_NAME": "STARLINK-36034", "OBJECT_ID": "2025-270X", "EPOCH": "2025-12-15T05:45:23.502240", "MEAN_MOTION": 15.50605276, "ECCENTRICITY": 0.0001506, "INCLINATION": 42.9987, "RA_OF_ASC_NODE": 178.0171, "ARG_OF_PERICENTER": 271.6445, "MEAN_ANOMALY": 88.4243, "EPHEMERIS_TYPE": 0, "CLASSIFICATION_TYPE": "U", "NORAD_CAT_ID": 66609, "ELEMENT_SET_NO": 999, "REV_AT_EPOCH": 457, "BSTAR": 0.001486724, "MEAN_MOTION_DOT": 0.00087946, "MEAN_MOTION_DDOT": 0}, "tle": {"line1": "1 66609U 25270X   25349.23985535  .00087946  00000+0  14867-2 0  9997", "line2": "2 66609  42.9987 178.0171 0001506 271.6445  88.4243 15.50605276  4576"}}, "geometry": {"type": "Point", "coordinates": [170.4544084619271, -3.1831300986209023]}}, {"type": "Feature", "properties": {"norad_id": 66610, "name": "STARLINK-35680", "group": "last-30-days", "lat": -1.886591506313229, "lon": 171.84504923342928, "alt_km": 414.38125990290246, "timestamp": "2025-12-15T22:44:27.660440+00:00", "meta": {"OBJECT_NAME": "STARLINK-35680", "OBJECT_ID": "2025-270Y", "EPOCH": "2025-12-15T05:44:53.958624", "MEAN_MOTION": 15.5060185, "ECCENTRICITY": 0.00014067, "INCLINATION": 42.9987, "RA_OF_ASC_NODE": 178.0139, "ARG_OF_PERICENTER": 277.0814, "MEAN_ANOMALY": 82.9886, "EPHEMERIS_TYPE": 0, "CLASSIFICATION_TYPE": "U", "NORAD_CAT_ID": 66610, "ELEMENT_SET_NO": 999, "REV_AT_EPOCH": 484, "BSTAR": 0.001503026, "MEAN_MOTION_DOT": 0.00088914, "MEAN_MOTION_DDOT": 0}, "tle": {"line1": "1 66610U 25270Y   25349.23951341  .00088914  00000+0  15030-2 0  9996", "line2": "2 66610  42.9987 178.0139 0001406 277.0814  82.9886 15.50601850  4847"}}, "geometry": {"type": "Point", "coordinates": [171.84504923342928, -1.886591506313229]}}]}